{"type": "FeatureCollection", "features": [ {"type": "Feature", "properties": {"norad_id": 66945, "name": "STARLINK-36110", "group": "last-30-days", "lat": -1.572985829456331, "lon": -163.88565071413723, "alt_km": 335.30965837859185, "timestamp": "2025-12-19T18:58:40.329789+00:00", "meta": {"OBJECT_NAME": "STARLINK-36110", "OBJECT_ID": "2025-286W", "EPOCH": "2025-12-19T06:00:02.000160", "MEAN_MOTION": 15.80545066, "ECCENTRICITY": 7.152e-05, "INCLINATION": 53.1549, "RA_OF_ASC_NODE": 17.6404, "ARG_OF_PERICENTER": 82.2173, "MEAN_ANOMALY": 262.9604, "EPHEMERIS_TYPE": 0, "CLASSIFICATION_TYPE": "U", "NORAD_CAT_ID": 66945, "ELEMENT_SET_NO": 999, "REV_AT_EPOCH": 303, "BSTAR": -0.0090750177, "MEAN_MOTION_DOT": -0.01549119, "MEAN_MOTION_DDOT": 0}, "tle": {"line1": "1 66945U 25286W   25353.25002315 -.01549119  00000+0 -90750-2 0  9993", "line2": "2 66945  53.1549  17.6404 0000715  82.2173 262.9604 15.80545066  3032"}}, "geometry": {"type": "Point", "coordinates": [-163.88565071413723, -1.572985829456331]}}, {"type": "Feature", "properties": {"norad_id": 66946, "name": "STARLINK-36115", "group": "last-30-days", "lat": -3.265521933091817, "lon": -162.6176397240376, "alt_km": 335.6480996640794, "timestamp": "2025-12-19T18:58:40.329800+00:00", "meta": {"OBJECT_NAME": "STARLINK-36115", "OBJECT_ID": "2025-286X", "EPOCH": "2025-12-19T06:00:02.000160", "MEAN_MOTION": 15.80525875, "ECCENTRICITY": 7.312e-05, "INCLINATION": 53.1548, "RA_OF_ASC_NODE": 17.6361, "ARG_OF_PERICENTER": 80.9288, "MEAN_ANOMALY": 266.412, "EPHEMERIS_TYPE": 0, "CLASSIFICATION_TYPE": "U", "NORAD_CAT_ID": 66946, "ELEMENT_SET_NO": 999, "REV_AT_EPOCH": 303, "BSTAR": -0.0091308306, "MEAN_MOTION_DOT": -0.01556249, "MEAN_MOTION_DDOT": 0}, "tle": {"line1": "1 66946U 25286X   25353.25002315 -.01556249  00000+0 -91308-2 0  9996", "line2": "2 66946  53.1548  17.6361 0000731  80.9288 266.4120 15.80525875  3032"}}, "geometry": {"type": "Point", "coordinates": [-162.6176397240376, -3.265521933091817]}}, {"type": "Feature", "properties": {"norad_id": 66947, "name": "STARLINK-36089", "group": "last-30-days", "lat": -6.74129238400703, "lon": -159.9932395038177, "alt_km": 336.3992294158279, "timestamp": "2025-12-19T18:58:40.329810+00:00", "meta": {"OBJECT_NAME": "STARLINK-36089", "OBJECT_ID": "2025-286Y", "EPOCH": "2025-12-19T06:00:02.000160", "MEAN_MOTION": 15.80469118, "ECCENTRICITY": 9.297e-05, "INCLINATION": 53.1548, "RA_OF_ASC_NODE": 17.6271, "ARG_OF_PERICENTER": 79.8159, "MEAN_ANOMALY": 272.0105, "EPHEMERIS_TYPE": 0, "CLASSIFICATION_TYPE": "U", "NORAD_CAT_ID": 66947, "ELEMENT_SET_NO": 999, "REV_AT_EPOCH": 303, "BSTAR": -0.0092711398, "MEAN_MOTION_DOT": -0.01573637, "MEAN_MOTION_DDOT": 0}, "tle": {"line1": "1 66947U 25286Y   25353.25002315 -.01573637  00000+0 -92711-2 0  9996", "line2": "2 66947  53.1548  17.6271 0000929  79.8159 272.0105 15.80469118  3039"}}, "geometry": {"type": "Point", "coordinates": [-159.9932395038177, -6.74129238400703]}}, {"type": "Feature", "properties": {"norad_id": 66948, "name": "STARLINK-36116", "group": "last-30-days", "lat": -5.112709570146707, "lon": -161.22726069887955, "alt_km": 336.09183216039037, "timestamp": "2025-12-19T18:58:40.329819+00:00", "meta": {"OBJECT_NAME": "STARLINK-36116", "OBJECT_ID": "2025-286Z", "EPOCH": "2025-12-19T06:00:02.000160", "MEAN_MOTION": 15.80474452, "ECCENTRICITY": 7.385e-05, "INCLINATION": 53.1549, "RA_OF_ASC_NODE": 17.6314, "ARG_OF_PERICENTER": 80.0909, "MEAN_ANOMALY": 269.6738, "EPHEMERIS_TYPE": 0, "CLASSIFICATION_TYPE": "U", "NORAD_CAT_ID": 66948, "ELEMENT_SET_NO": 999, "REV_AT_EPOCH": 303, "BSTAR": -0.0092101278, "MEAN_MOTION_DOT": -0.01564789, "MEAN_MOTION_DDOT": 0}, "tle": {"line1": "1 66948U 25286Z   25353.25002315 -.01564789  00000+0 -92101-2 0  9998", "line2": "2 66948  53.1549  17.6314 0000738  80.0909 269.6738 15.80474452  3035"}}, "geometry": {"type": "Point", "coordinates": [-161.22726069887955, -5.112709570146707]}}, {"type": "Feature", "properties": {"norad_id": 66949, "name": "STARLINK-36096", "group": "last-30-days", "lat": -8.378767077819633, "lon": -158.74194289749315, "alt_km": 336.62533752508716, "timestamp": "2025-12-19T18:58:40.329831+00:00", "meta": {"OBJECT_NAME": "STARLINK-36096", "OBJECT_ID": "2025-286AA", "EPOCH": "2025-12-19T06:00:02.000160", "MEAN_MOTION": 15.80457233, "ECCENTRICITY": 7.388e-05, "INCLINATION": 53.1551, "RA_OF_ASC_NODE": 17.6225, "ARG_OF_PERICENTER": 79.9334, "MEAN_ANOMALY": 273.9826, "EPHEMERIS_TYPE": 0, "CLASSIFICATION_TYPE": "U", "NORAD_CAT_ID": 66949, "ELEMENT_SET_NO": 999, "REV_AT_EPOCH": 303, "BSTAR": -0.0093115964, "MEAN_MOTION_DOT": -0.01578728, "MEAN_MOTION_DDOT": 0}, "tle": {"line1": "1 66949U 25286AA  25353.25002315 -.01578728  00000+0 -93116-2 0  9994", "line2": "2 66949  53.1551  17.6225 0000738  79.9334 273.9826 15.80457233  3033"}}, "geometry": {"type": "Point", "coordinates": [-158.74194289749315, -8.378767077819633]}}, {"type": "Feature", "properties": {"norad_id": 66950, "name": "STARLINK-36111", "group": "last-30-days", "lat": -11.709732207067805, "lon": -156.1501582626193, "alt_km": 337.25253698783035, "timestamp": "2025-12-19T18:58:40.329841+00:00", "meta": {"OBJECT_NAME": "STARLINK-36111", "OBJECT_ID": "2025-286AB", "EPOCH": "2025-12-19T06:00:02.000160", "MEAN_MOTION": 15.80423004, "ECCENTRICITY": 8.733e-05, "INCLINATION": 53.1549, "RA_OF_ASC_NODE": 17.6138, "ARG_OF_PERICENTER": 78.1952, "MEAN_ANOMALY": 280.0088, "EPHEMERIS_TYPE": 0, "CLASSIFICATION_TYPE": "U", "NORAD_CAT_ID": 66950, "ELEMENT_SET_NO": 999, "REV_AT_EPOCH": 303, "BSTAR": -0.0094305605, "MEAN_MOTION_DOT": -0.01594182, "MEAN_MOTION_DDOT": 0}, "tle": {"line1": "1 66950U 25286AB  25353.25002315 -.01594182  00000+0 -94306-2 0  9990", "line2": "2 66950  53.1549  17.6138 0000873  78.1952 280.0088 15.80423004  3030"}}, "geometry": {"type": "Point", "coordinates": [-156.1501582626193, -11.709732207067805]}}, {"type": "Feature", "properties": {"norad_id": 66951, "name": "STARLINK-35999", "group": "last-30-days", "lat": -13.40989089315591, "lon": -154.79724205929028, "alt_km": 337.52075556997806, "timestamp": "2025-12-19T18:58:40.329853+00:00", "meta": {"OBJECT_NAME": "STARLINK-35999", "OBJECT_ID": "2025-286AC", "EPOCH": "2025-12-19T06:00:02.000160", "MEAN_MOTION": 15.80396532, "ECCENTRICITY": 8.565e-05, "INCLINATION": 53.155, "RA_OF_ASC_NODE": 17.6092, "ARG_OF_PERICENTER": 81.1888, "MEAN_ANOMALY": 279.2346, "EPHEMERIS_TYPE": 0, "CLASSIFICATION_TYPE": "U", "NORAD_CAT_ID": 66951, "ELEMENT_SET_NO": 999, "REV_AT_EPOCH": 303, "BSTAR": -0.0095022254, "MEAN_MOTION_DOT": -0.01602992, "MEAN_MOTION_DDOT": 0}, "tle": {"line1": "1 66951U 25286AC  25353.25002315 -.01602992  00000+0 -95022-2 0  9996", "line2": "2 66951  53.1550  17.6092 0000856  81.1888 279.2346 15.80396532  3037"}}, "geometry": {"type": "Point", "coordinates": [-154.79724205929028, -13.40989089315591]}}, {"type": "Feature", "properties": {"norad_id": 66952, "name": "STARLINK-36122", "group": "last-30-days", "lat": -10.063016814098775, "lon": -157.43976379541786, "alt_km": 336.99217416386546, "timestamp": "2025-12-19T18:58:40.329863+00:00", "meta": {"OBJECT_NAME": "STARLINK-36122", "OBJECT_ID": "2025-286AD", "EPOCH": "2025-12-19T06:00:02.000160", "MEAN_MOTION": 15.80436234, "ECCENTRICITY": 9.137e-05, "INCLINATION": 53.1552, "RA_OF_ASC_NODE": 17.6185, "ARG_OF_PERICENTER": 78.1043, "MEAN_ANOMALY": 277.9817, "EPHEMERIS_TYPE": 0, "CLASSIFICATION_TYPE": "U", "NORAD_CAT_ID": 66952, "ELEMENT_SET_NO": 999, "REV_AT_EPOCH": 303, "BSTAR": -0.0093681942, "MEAN_MOTION_DOT": -0.0158587, "MEAN_MOTION_DDOT": 0}, "tle": {"line1": "1 66952U 25286AD  25353.25002315 -.01585870  00000+0 -93682-2 0  9992", "line2": "2 66952  53.1552  17.6185 0000913  78.1043 277.9817 15.80436234  3038"}}, "geometry": {"type": "Point", "coordinates": [-157.43976379541786, -10.063016814098775]}}, {"type": "Feature", "properties": {"norad_id": 66953, "name": "HULIANWANG DIGUI-114", "group": "last-30-days", "lat": -19.79533709329721, "lon": -17.678684740697932, "alt_km": 1019.8408731111294, "timestamp": "2025-12-19T18:58:40.329873+00:00", "meta": {"OBJECT_NAME": "HULIANWANG DIGUI-114", "OBJECT_ID": "2025-287A", "EPOCH": "2025-12-18T14:58:33.375360", "MEAN_MOTION": 13.67416524, "ECCENTRICITY": 0.00087038, "INCLINATION": 86.4968, "RA_OF_ASC_NODE": 344.0089, "ARG_OF_PERICENTER": 188.5983, "MEAN_ANOMALY": 171.5028, "EPHEMERIS_TYPE": 0, "CLASSIFICATION_TYPE": "U", "NORAD_CAT_ID": 66953, "ELEMENT_SET_NO": 999, "REV_AT_EPOCH": 133, "BSTAR": 1.0869035e-05, "MEAN_MOTION_DOT": 2.6e-07, "MEAN_MOTION_DDOT": 0}, "tle": {"line1": "1 66953U 25287A   25352.62399740  .00000026  00000+0  10869-4 0  9995", "line2": "2 66953  86.4968 344.0089 0008703 188.5983 171.5028 13.67416524  1330"}}, "geometry": {"type": "Point", "coordinates": [-17.678684740697932, -19.79533709329721]}}, {"type": "Feature", "properties": {"norad_id": 66954, "name": "HULIANWANG DIGUI-115", "group": "last-30-days", "lat": -15.711755463759088, "lon": -17.397844696760888, "alt_km": 1019.4000581341943, "timestamp": "2025-12-19T18:58:40.329884+00:00", "meta": {"OBJECT_NAME": "HULIANWANG DIGUI-115", "OBJECT_ID": "2025-287B", "EPOCH": "2025-12-18T14:57:30.566880", "MEAN_MOTION": 13.67541232, "ECCENTRICITY": 0.00089471, "INCLINATION": 86.4978, "RA_OF_ASC_NODE": 344.0137, "ARG_OF_PERICENTER": 187.4507, "MEAN_ANOMALY": 172.652, "EPHEMERIS_TYPE": 0, "CLASSIFICATION_TYPE": "U", "NORAD_CAT_ID": 66954, "ELEMENT_SET_NO": 999, "REV_AT_EPOCH": 133, "BSTAR": 1.0944943e-05, "MEAN_MOTION_DOT": 2.6e-07, "MEAN_MOTION_DDOT": 0}, "tle": {"line1": "1 66954U 25287B   25352.62327045  .00000026  00000+0  10945-4 0  9990", "line2": "2 66954  86.4978 344.0137 0008947 187.4507 172.6520 13.67541232  1330"}}, "geometry": {"type": "Point", "coordinates": [-17.397844696760888, -15.711755463759088]}}]}